{
  "type": "FeatureCollection",
  "features": [
    {
      "type": "Feature",
      "properties": {
        "norad_id": 30243,
        "name": "FENGYUN 1C DEB",
        "group": "fengyun-1c-debris",
        "lat": 53.253302241399396,
        "lon": -16.12551424508584,
        "alt_km": 841.0420496084125,
        "timestamp": "2025-12-10T04:57:29.893215+00:00",
        "meta_object_name": "FENGYUN 1C DEB",
        "meta_object_id": "1999-025XC",
        "meta_epoch": "2025-12-09T19:19:19.939296",
        "meta_mean_motion": 14.13015873,
        "meta_eccentricity": 0.0013006,
        "meta_inclination": 98.6932,
        "meta_ra_of_asc_node": 355.309,
        "meta_arg_of_pericenter": 126.9372,
        "meta_mean_anomaly": 46.1722,
        "meta_ephemeris_type": 0,
        "meta_classification_type": "U",
        "meta_norad_cat_id": 30243,
        "meta_element_set_no": 999,
        "meta_rev_at_epoch": 97237,
        "meta_bstar": 0.00060111,
        "meta_mean_motion_dot": 1.079e-05,
        "meta_mean_motion_ddot": 0,
        "tle_line1": "1 30243U 99025XC  25343.80509189  .00001079  00000+0  60111-3 0  9992",
        "tle_line2": "2 30243  98.6932 355.3090 0013006 126.9372  46.1722 14.13015873972379"
      },
      "geometry": {
        "type": "Point",
        "coordinates": [
          -16.12551424508584,
          53.253302241399396
        ]
      }
    },
    {
      "type": "Feature",
      "properties": {
        "norad_id": 30244,
        "name": "FENGYUN 1C DEB",
        "group": "fengyun-1c-debris",
        "lat": -50.14176666691396,
        "lon": 42.673102841440915,
        "alt_km": 849.311835935815,
        "timestamp": "2025-12-10T04:57:29.893225+00:00",
        "meta_object_name": "FENGYUN 1C DEB",
        "meta_object_id": "1999-025XD",
        "meta_epoch": "2025-12-09T11:44:20.713632",
        "meta_mean_motion": 14.15008562,
        "meta_eccentricity": 0.00097196,
        "meta_inclination": 99.1433,
        "meta_ra_of_asc_node": 233.0604,
        "meta_arg_of_pericenter": 324.5921,
        "meta_mean_anomaly": 213.6938,
        "meta_ephemeris_type": 0,
        "meta_classification_type": "U",
        "meta_norad_cat_id": 30244,
        "meta_element_set_no": 999,
        "meta_rev_at_epoch": 97300,
        "meta_bstar": 0.00068286031,
        "meta_mean_motion_dot": 1.276e-05,
        "meta_mean_motion_ddot": 0,
        "tle_line1": "1 30244U 99025XD  25343.48912863  .00001276  00000+0  68286-3 0  9994",
        "tle_line2": "2 30244  99.1433 233.0604 0009719 324.5921 213.6938 14.15008562973007"
      },
      "geometry": {
        "type": "Point",
        "coordinates": [
          42.673102841440915,
          -50.14176666691396
        ]
      }
    },
    {
      "type": "Feature",
      "properties": {
        "norad_id": 30245,
        "name": "FENGYUN 1C DEB",
        "group": "fengyun-1c-debris",
        "lat": -18.756582679255224,
        "lon": -24.991916588400198,
        "alt_km": 952.845596037957,
        "timestamp": "2025-12-10T04:57:29.893235+00:00",
        "meta_object_name": "FENGYUN 1C DEB",
        "meta_object_id": "1999-025XE",
        "meta_epoch": "2025-12-09T16:51:41.234112",
        "meta_mean_motion": 13.79056958,
        "meta_eccentricity": 0.01932,
        "meta_inclination": 98.8892,
        "meta_ra_of_asc_node": 331.4886,
        "meta_arg_of_pericenter": 259.1975,
        "meta_mean_anomaly": 98.738,
        "meta_ephemeris_type": 0,
        "meta_classification_type": "U",
        "meta_norad_cat_id": 30245,
        "meta_element_set_no": 999,
        "meta_rev_at_epoch": 94652,
        "meta_bstar": 0.0018738,
        "meta_mean_motion_dot": 2.16e-05,
        "meta_mean_motion_ddot": 0,
        "tle_line1": "1 30245U 99025XE  25343.70256058  .00002160  00000+0  18738-2 0  9996",
        "tle_line2": "2 30245  98.8892 331.4886 0193200 259.1975  98.7380 13.79056958946520"
      },
      "geometry": {
        "type": "Point",
        "coordinates": [
          -24.991916588400198,
          -18.756582679255224
        ]
      }
    },
    {
      "type": "Feature",
      "properties": {
        "norad_id": 30246,
        "name": "FENGYUN 1C DEB",
        "group": "fengyun-1c-debris",
        "lat": 77.27777845980684,
        "lon": -9.215210691689126,
        "alt_km": 836.8852112129744,
        "timestamp": "2025-12-10T04:57:29.893257+00:00",
        "meta_object_name": "FENGYUN 1C DEB",
        "meta_object_id": "1999-025XF",
        "meta_epoch": "2025-12-09T08:59:36.385152",
        "meta_mean_motion": 13.37016715,
        "meta_eccentricity": 0.03706918,
        "meta_inclination": 98.6729,
        "meta_ra_of_asc_node": 127.5396,
        "meta_arg_of_pericenter": 108.1497,
        "meta_mean_anomaly": 309.7431,
        "meta_ephemeris_type": 0,
        "meta_classification_type": "U",
        "meta_norad_cat_id": 30246,
        "meta_element_set_no": 999,
        "meta_rev_at_epoch": 92095,
        "meta_bstar": 0.00046341868,
        "meta_mean_motion_dot": 3.26e-06,
        "meta_mean_motion_ddot": 0,
        "tle_line1": "1 30246U 99025XF  25343.37472668  .00000326  00000+0  46342-3 0  9992",
        "tle_line2": "2 30246  98.6729 127.5396 0370691 108.1497 309.7431 13.37016715920953"
      },
      "geometry": {
        "type": "Point",
        "coordinates": [
          -9.215210691689126,
          77.27777845980684
        ]
      }
    },
    {
      "type": "Feature",
      "properties": {
        "norad_id": 30247,
        "name": "FENGYUN 1C DEB",
        "group": "fengyun-1c-debris",
        "lat": 44.218598466159015,
        "lon": 79.50846037273982,
        "alt_km": 789.1892419998248,
        "timestamp": "2025-12-10T04:57:29.893269+00:00",
        "meta_object_name": "FENGYUN 1C DEB",
        "meta_object_id": "1999-025XG",
        "meta_epoch": "2025-12-09T16:57:29.712960",
        "meta_mean_motion": 14.58969842,
        "meta_eccentricity": 0.0194807,
        "meta_inclination": 98.2761,
        "meta_ra_of_asc_node": 250.8673,
        "meta_arg_of_pericenter": 1.4123,
        "meta_mean_anomaly": 27.4843,
        "meta_ephemeris_type": 0,
        "meta_classification_type": "U",
        "meta_norad_cat_id": 30247,
        "meta_element_set_no": 999,
        "meta_rev_at_epoch": 97238,
        "meta_bstar": 0.0048255,
        "meta_mean_motion_dot": 0.00029556,
        "meta_mean_motion_ddot": 0,
        "tle_line1": "1 30247U 99025XG  25343.70659390  .00029556  00000+0  48255-2 0  9999",
        "tle_line2": "2 30247  98.2761 250.8673 0194807   1.4123  27.4843 14.58969842972385"
      },
      "geometry": {
        "type": "Point",
        "coordinates": [
          79.50846037273982,
          44.218598466159015
        ]
      }
    },
    {
      "type": "Feature",
      "properties": {
        "norad_id": 30248,
        "name": "FENGYUN 1C DEB",
        "group": "fengyun-1c-debris",
        "lat": 11.896314389964393,
        "lon": -9.978094388240171,
        "alt_km": 677.5561253772466,
        "timestamp": "2025-12-10T04:57:29.893279+00:00",
        "meta_object_name": "FENGYUN 1C DEB",
        "meta_object_id": "1999-025XH",
        "meta_epoch": "2025-12-08T11:02:35.764224",
        "meta_mean_motion": 14.589251,
        "meta_eccentricity": 0.00287497,
        "meta_inclination": 99.0988,
        "meta_ra_of_asc_node": 166.1755,
        "meta_arg_of_pericenter": 164.8462,
        "meta_mean_anomaly": 195.3603,
        "meta_ephemeris_type": 0,
        "meta_classification_type": "U",
        "meta_norad_cat_id": 30248,
        "meta_element_set_no": 999,
        "meta_rev_at_epoch": 97366,
        "meta_bstar": 0.0046788522,
        "meta_mean_motion_dot": 0.00022072,
        "meta_mean_motion_ddot": 0,
        "tle_line1": "1 30248U 99025XH  25342.46013616  .00022072  00000+0  46789-2 0  9993",
        "tle_line2": "2 30248  99.0988 166.1755 0028749 164.8462 195.3603 14.58925100973667"
      },
      "geometry": {
        "type": "Point",
        "coordinates": [
          -9.978094388240171,
          11.896314389964393
        ]
      }
    },
    {
      "type": "Feature",
      "properties": {
        "norad_id": 30249,
        "name": "FENGYUN 1C DEB",
        "group": "fengyun-1c-debris",
        "lat": -67.32549725225316,
        "lon": -53.75411895300955,
        "alt_km": 726.0171166347372,
        "timestamp": "2025-12-10T04:57:29.893292+00:00",
        "meta_object_name": "FENGYUN 1C DEB",
        "meta_object_id": "1999-025XJ",
        "meta_epoch": "2025-12-09T09:57:52.906752",
        "meta_mean_motion": 14.57499341,
        "meta_eccentricity": 0.00264274,
        "meta_inclination": 98.9595,
        "meta_ra_of_asc_node": 147.581,
        "meta_arg_of_pericenter": 52.2408,
        "meta_mean_anomaly": 6.7737,
        "meta_ephemeris_type": 0,
        "meta_classification_type": "U",
        "meta_norad_cat_id": 30249,
        "meta_element_set_no": 999,
        "meta_rev_at_epoch": 97515,
        "meta_bstar": 0.0052759112,
        "meta_mean_motion_dot": 0.00024122,
        "meta_mean_motion_ddot": 0,
        "tle_line1": "1 30249U 99025XJ  25343.41519568  .00024122  00000+0  52759-2 0  9999",
        "tle_line2": "2 30249  98.9595 147.5810 0026427  52.2408   6.7737 14.57499341975157"
      },
      "geometry": {
        "type": "Point",
        "coordinates": [
          -53.75411895300955,
          -67.32549725225316
        ]
      }
    }
  ]
}